IRIDIUM 26              
1 24903U 97043A   25300.82007810  .00000671  00000+0  21867-3 0  9997
2 24903  86.3964  54.8541 0002107  87.8267 272.3172 14.37268551475799
IRIDIUM 22              
1 24907U 97043E   25300.85998193  .00000609  00000+0  20266-3 0  9990
2 24907  86.3963  58.4917 0001970  91.5929 268.5494 14.36068378475814
DUMMY MASS 1            
1 24925U 97048A   25300.84851883  .00000756  00000+0  81009-4 0  9994
2 24925  86.3323  73.9390 0008235  49.5324 310.6617 14.87117095524845
DUMMY MASS 2            
1 24926U 97048B   25300.90010874  .00000750  00000+0  80829-4 0  9992
2 24926  86.3321  75.5483 0009283  57.6314 302.5808 14.86867864524621
IRIDIUM 29              
1 24944U 97051A   25300.90478306  .00000753  00000+0  24965-3 0  9995
2 24944  86.3915  88.1899 0001961  95.9501 264.1920 14.36594635472324
IRIDIUM 33              
1 24946U 97051C   25300.89394178  .00000566  00000+0  19210-3 0  9998
2 24946  86.3832  87.4668 0008282  19.5972 340.5541 14.34985454471774
IRIDIUM 28              
1 24948U 97051E   25300.93373211  .00000695  00000+0  22587-3 0  9994
2 24948  86.3923  85.6157 0002201  76.6120 283.5323 14.37499727472911
IRIDIUM 36              
1 24967U 97056C   25300.94583336  .00000640  00000+0  20631-3 0  9990
2 24967  86.3926 117.2451 0001933  82.4266 277.7151 14.37719867471295
